COMMENT,ORIGINATOR,NORAD_CAT_ID,OBJECT_NAME,OBJECT_TYPE,CLASSIFICATION_TYPE,INTLDES,EPOCH,EPOCH_MICROSECONDS,MEAN_MOTION,ECCENTRICITY,INCLINATION,RA_OF_ASC_NODE,ARG_OF_PERICENTER,MEAN_ANOMALY,EPHEMERIS_TYPE,ELEMENT_SET_NO,REV_AT_EPOCH,BSTAR,MEAN_MOTION_DOT,MEAN_MOTION_DDOT,FILE,TLE_LINE0,TLE_LINE1,TLE_LINE2,OBJECT_ID,OBJECT_NUMBER,SEMIMAJOR_AXIS,PERIOD,APOGEE,PERIGEE,DECAYED
"GENERATED VIA SPACETRACK.ORG API","18 SPCS","48888","SPACEBEE-103","PAYLOAD","U","21059K","2021-12-31 22:08:44","476800","15.12950428","0.0008178","97.5341","132.0774","329.4838","30.5916","0","999","2858","0.00018116","0.0000313","0","3255243","0 SPACEBEE-103","1 48888U 21059K   21365.92273700  .00003130  00000-0  18116-3 0  9997","2 48888  97.5341 132.0774 0008178 329.4838  30.5916 15.12950428 28586","2021-059K","48888","6905.345","95.178","532.857","521.563","0"
"GENERATED VIA SPACETRACK.ORG API","18 SPCS","48888","SPACEBEE-103","PAYLOAD","U","21059K","2022-01-01 07:40:10","300224","15.12953375","0.0008162","97.5342","132.4695","327.9652","32.1082","0","999","2864","0.00019267","0.00003333","0","3259794","0 SPACEBEE-103","1 48888U 21059K   22001.31956366  .00003333  00000-0  19267-3 0  9997","2 48888  97.5342 132.4695 0008162 327.9652  32.1082 15.12953375 28646","2021-059K","48888","6905.336","95.178","532.837","521.565","0"
"GENERATED VIA SPACETRACK.ORG API","18 SPCS","48888","SPACEBEE-103","PAYLOAD","U","21059K","2022-01-01 14:01:07","459968","15.1295638","0.0008143","97.5343","132.7309","326.9494","33.1227","0","999","2868","0.00022257","0.00003861","0","3255244","0 SPACEBEE-103","1 48888U 21059K   22001.58411412  .00003861  00000-0  22257-3 0  9993","2 48888  97.5343 132.7309 0008143 326.9494  33.1227 15.12956380 28689","2021-059K","48888","6905.327","95.178","532.815","521.569","0"
"GENERATED VIA SPACETRACK.ORG API","18 SPCS","48888","SPACEBEE-103","PAYLOAD","U","21059K","2022-01-01 21:57:18","889344","15.1295863","0.0008126","97.5344","133.0576","325.6447","34.4258","0","999","2873","0.0002233","0.00003874","0","3255246","0 SPACEBEE-103","1 48888U 21059K   22001.91480196  .00003874  00000-0  22330-3 0  9991","2 48888  97.5344 133.0576 0008126 325.6447  34.4258 15.12958630 28739","2021-059K","48888","6905.320","95.178","532.796","521.574","0"
"GENERATED VIA SPACETRACK.ORG API","18 SPCS","48888","SPACEBEE-103","PAYLOAD","U","21059K","2022-01-02 07:28:44","539104","15.12961133","0.000811","97.5345","133.4497","324.1042","35.9643","0","999","2879","0.00021826","0.00003786","0","3255248","0 SPACEBEE-103","1 48888U 21059K   22002.31162661  .00003786  00000-0  21826-3 0  9991","2 48888  97.5345 133.4497 0008110 324.1042  35.9643 15.12961133 28796","2021-059K","48888","6905.312","95.178","532.778","521.577","0"
"GENERATED VIA SPACETRACK.ORG API","18 SPCS","48888","SPACEBEE-103","PAYLOAD","U","21059K","2022-01-02 20:10:38","654688","15.12964189","0.0008067","97.5347","133.9725","322.1092","37.957","0","999","2887","0.00020282","0.00003513","0","3255249","0 SPACEBEE-103","1 48888U 21059K   22002.84072517  .00003513  00000-0  20282-3 0  9992","2 48888  97.5347 133.9725 0008067 322.1092  37.9570 15.12964189 28875","2021-059K","48888","6905.303","95.177","532.739","521.598","0"
"GENERATED VIA SPACETRACK.ORG API","18 SPCS","48888","SPACEBEE-103","PAYLOAD","U","21059K","2022-01-02 20:10:38","654688","15.12964189","0.0008067","97.5347","133.9725","322.1092","37.957","0","999","2887","0.00020282","0.00003513","0","3258432","0 SPACEBEE-103","1 48888U 21059K   22002.84072517  .00003513  00000-0  20282-3 0  9992","2 48888  97.5347 133.9725 0008067 322.1092  37.9570 15.12964189 28875","2021-059K","48888","6905.303","95.177","532.739","521.598","0"
"GENERATED VIA SPACETRACK.ORG API","18 SPCS","48888","SPACEBEE-103","PAYLOAD","U","21059K","2022-01-03 13:38:15","313920","15.12970325","0.0008019","97.5349","134.6913","319.3995","40.6637","0","999","2898","0.00021419","0.00003715","0","3255250","0 SPACEBEE-103","1 48888U 21059K   22003.56823280  .00003715  00000-0  21419-3 0  9990","2 48888  97.5349 134.6913 0008019 319.3995  40.6637 15.12970325 28987","2021-059K","48888","6905.284","95.177","532.687","521.612","0"
"GENERATED VIA SPACETRACK.ORG API","18 SPCS","48888","SPACEBEE-103","PAYLOAD","U","21059K","2022-01-03 15:13:29","544672","15.12970794","0.0008015","97.5349","134.7567","319.1629","40.9001","0","999","2899","0.00021266","0.00003688","0","3256498","0 SPACEBEE-103","1 48888U 21059K   22003.63436973  .00003688  00000-0  21266-3 0  9996","2 48888  97.5349 134.7567 0008015 319.1629  40.9001 15.12970794 28990","2021-059K","48888","6905.283","95.177","532.683","521.613","0"
"GENERATED VIA SPACETRACK.ORG API","18 SPCS","48888","SPACEBEE-103","PAYLOAD","U","21059K","2022-01-04 07:05:51","782208","15.12974141","0.0007977","97.5348","135.4101","316.6429","43.4173","0","999","2909","0.00018341","0.00003172","0","3262751","0 SPACEBEE-103","1 48888U 21059K   22004.29573822  .00003172  00000-0  18341-3 0  9992","2 48888  97.5348 135.4101 0007977 316.6429  43.4173 15.12974141 29097","2021-059K","48888","6905.273","95.177","532.646","521.629","0"
"GENERATED VIA SPACETRACK.ORG API","18 SPCS","48888","SPACEBEE-103","PAYLOAD","U","21059K","2022-01-04 13:26:48","612768","15.12975796","0.0007955","97.5348","135.6715","315.6074","44.4519","0","999","2913","0.00017597","0.0000304","0","3263295","0 SPACEBEE-103","1 48888U 21059K   22004.56028487  .00003040  00000-0  17597-3 0  9990","2 48888  97.5348 135.6715 0007955 315.6074  44.4519 15.12975796 29138","2021-059K","48888","6905.268","95.177","532.626","521.640","0"
"GENERATED VIA SPACETRACK.ORG API","18 SPCS","48888","SPACEBEE-103","PAYLOAD","U","21059K","2022-01-04 21:22:59","628288","15.12977354","0.0007926","97.5349","135.9982","314.3457","45.7124","0","999","2918","0.0001581","0.00002725","0","3264067","0 SPACEBEE-103","1 48888U 21059K   22004.89096792  .00002725  00000-0  15810-3 0  9995","2 48888  97.5349 135.9982 0007926 314.3457  45.7124 15.12977354 29180","2021-059K","48888","6905.263","95.177","532.601","521.655","0"
"GENERATED VIA SPACETRACK.ORG API","18 SPCS","48888","SPACEBEE-103","PAYLOAD","U","21059K","2022-01-05 08:29:38","990400","15.12980524","0.0007908","97.5348","136.4556","312.5662","47.4901","0","999","2925","0.00015543","0.00002678","0","3264575","0 SPACEBEE-103","1 48888U 21059K   22005.35392350  .00002678  00000-0  15543-3 0  9996","2 48888  97.5348 136.4556 0007908 312.5662  47.4901 15.12980524 29253","2021-059K","48888","6905.253","95.176","532.579","521.658","0"
"GENERATED VIA SPACETRACK.ORG API","18 SPCS","48888","SPACEBEE-103","PAYLOAD","U","21059K","2022-01-05 13:15:21","543552","15.12981784","0.0007891","97.5348","136.6517","311.8369","48.2188","0","999","2928","0.00015246","0.00002626","0","3264673","0 SPACEBEE-103","1 48888U 21059K   22005.55233268  .00002626  00000-0  15246-3 0  9993","2 48888  97.5348 136.6517 0007891 311.8369  48.2188 15.12981784 29287","2021-059K","48888","6905.250","95.176","532.563","521.666","0"
"GENERATED VIA SPACETRACK.ORG API","18 SPCS","48888","SPACEBEE-103","PAYLOAD","U","21059K","2022-01-05 21:11:32","434656","15.12983965","0.0007875","97.5348","136.9784","310.5754","49.479","0","999","2933","0.00014906","0.00002566","0","3265018","0 SPACEBEE-103","1 48888U 21059K   22005.88301429  .00002566  00000-0  14906-3 0  9999","2 48888  97.5348 136.9784 0007875 310.5754  49.4790 15.12983965 29333","2021-059K","48888","6905.243","95.176","532.546","521.670","0"
"GENERATED VIA SPACETRACK.ORG API","18 SPCS","48888","SPACEBEE-103","PAYLOAD","U","21059K","2022-01-06 13:03:54","175392","15.12986938","0.0007836","97.5348","137.6318","308.0259","52.0264","0","999","2943","0.00013035","0.00002236","0","3265629","0 SPACEBEE-103","1 48888U 21059K   22006.54437703  .00002236  00000-0  13035-3 0  9994","2 48888  97.5348 137.6318 0007836 308.0259  52.0264 15.12986938 29433","2021-059K","48888","6905.234","95.176","532.510","521.688","0"
"GENERATED VIA SPACETRACK.ORG API","18 SPCS","48888","SPACEBEE-103","PAYLOAD","U","21059K","2022-01-06 14:39:08","337888","15.12987383","0.0007839","97.5348","137.6971","307.7518","52.3002","0","999","2944","0.00013161","0.00002258","0","3265790","0 SPACEBEE-103","1 48888U 21059K   22006.61051317  .00002258  00000-0  13161-3 0  9999","2 48888  97.5348 137.6971 0007839 307.7518  52.3002 15.12987383 29444","2021-059K","48888","6905.232","95.176","532.510","521.684","0"
"GENERATED VIA SPACETRACK.ORG API","18 SPCS","48888","SPACEBEE-103","PAYLOAD","U","21059K","2022-01-06 21:00:04","986144","15.12988191","0.000782","97.5347","137.9585","306.6832","53.368","0","999","2948","0.00011692","0.00001999","0","3265870","0 SPACEBEE-103","1 48888U 21059K   22006.87505771  .00001999  00000-0  11692-3 0  9993","2 48888  97.5347 137.9585 0007820 306.6832  53.3680 15.12988191 29489","2021-059K","48888","6905.230","95.176","532.495","521.695","0"
"GENERATED VIA SPACETRACK.ORG API","18 SPCS","48888","SPACEBEE-103","PAYLOAD","U","21059K","2022-01-07 14:27:40","723488","15.12992506","0.000779","97.5347","138.6773","303.8335","56.2154","0","999","2959","0.00013149","0.00002256","0","3266507","0 SPACEBEE-103","1 48888U 21059K   22007.60255467  .00002256  00000-0  13149-3 0  9995","2 48888  97.5347 138.6773 0007790 303.8335  56.2154 15.12992506 29594","2021-059K","48888","6905.217","95.176","532.461","521.703","0"
"GENERATED VIA SPACETRACK.ORG API","18 SPCS","48888","SPACEBEE-103","PAYLOAD","U","21059K","2022-01-07 20:48:37","312992","15.12992972","0.0007784","97.5346","138.9387","302.7353","57.3127","0","999","2963","0.00011516","0.00001968","0","3266804","0 SPACEBEE-103","1 48888U 21059K   22007.86709853  .00001968  00000-0  11516-3 0  9991","2 48888  97.5346 138.9387 0007784 302.7353  57.3127 15.12992972 29632","2021-059K","48888","6905.215","95.176","532.455","521.705","0"
